MAKERSAT 0              
1 43016U 17073D   26056.12419688  .00019911  00000+0  61275-3 0  9994
2 43016  97.4810 298.0640 0117326 310.9271  48.1855 15.27101250449335
SIRION PATHFINDER-2     
1 43759U 18099B   26056.08952616  .00005512  00000+0  31243-3 0  9999
2 43759  97.4419 107.8128 0008200 336.4571  23.6284 15.13361858395665
CORVUS BC4              
1 43767U 18099K   26056.08126258  .00004823  00000+0  28864-3 0  9992
2 43767  97.4237 102.3307 0009219  37.7406 322.4470 15.11457088395464
SPACEBEE-7              
1 43816U 18099BL  26056.18115869  .00566703  13070-3  16282-2 0  9999
2 43816  97.4471 141.9142 0006717 259.0129 101.0390 15.93088913397210
M2 PATHFINDER           
1 45727U 20037E   26056.10598459  .00002428  00000+0  17969-3 0  9997
2 45727  97.8167 246.0916 0012116 164.0444 196.1165 15.04084838308648
NETSAT-4                
1 46504U 20068U   26056.18086894  .00016160  00000+0  40955-3 0  9997
2 46504  97.8642  55.7522 0006509  23.6250 336.5292 15.39787812298517
NETSAT-3                
1 46505U 20068V   26056.03029136  .00016914  00000+0  44781-3 0  9996
2 46505  97.8677  53.9704 0006980  38.7518 321.4225 15.38429582298419
NETSAT-1                
1 46506U 20068W   26056.20796847  .00014749  00000+0  48599-3 0  9991
2 46506  97.8742  49.7262 0007344  54.0107 306.1813 15.31557731298149
NETSAT-2                
1 46507U 20068X   26055.94859682  .00020552  00000+0  50215-3 0  9996
2 46507  97.8659  55.0816 0006358  53.9730 306.2104 15.40847520298429
WILDTRACKCUBE-SIMBA     
1 47941U 21022K   26054.54937087  .00686120  21551-3  13627-2 0  9993
2 47941  97.3894 335.4336 0008372 104.5900 255.6307 15.99884443273570
GREENCUBE (IO-117)      
1 53109U 22080E   26056.12606939 -.00000003  00000+0  00000+0 0  9997
2 53109  70.1634 337.2204 0009070 314.4981  45.4937  6.42583079 84860
SITRO-AIS 5 (KATYS)     
1 57176U 23091L   26056.29381348  .00012065  00000+0  46124-3 0  9991
2 57176  97.5210 119.2774 0013255 134.2759 225.9570 15.26671968147250
SITRO-AIS 6 (CHIRKIN)   
1 57192U 23091AC  26056.24115828  .00006020  00000+0  24955-3 0  9994
2 57192  97.5213 118.8683 0013887 134.1873 226.0508 15.24184131147221
SITRO-AIS 8 (ANOKHIN)   
1 57193U 23091AD  26056.29414302  .00014351  00000+0  51234-3 0  9995
2 57193  97.5202 120.4527 0012459 131.7865 228.4441 15.28897414147337
SITRO-AIS 7 (FARTUSHNIY)
1 57194U 23091AE  26056.28939343  .00005520  00000+0  23065-3 0  9991
2 57194  97.5213 118.7926 0013633 134.9631 225.2714 15.23954964147229
SITRO-AIS 10 (BURDAEV)  
1 57199U 23091AK  26056.29705612  .00018770  00000+0  56917-3 0  9990
2 57199  97.5215 124.4690 0008617 112.6845 247.5310 15.34139537147585
SITRO-AIS 9 (SHCHUKIN)  
1 57201U 23091AM  26056.29232035  .00018478  00000+0  56677-3 0  9996
2 57201  97.5214 124.2705 0008745 112.4835 247.7334 15.33778074147573
SITRO-AIS 12 (SMIRENNIY)
1 57204U 23091AQ  26056.30261338  .00018403  00000+0  56015-3 0  9993
2 57204  97.5224 124.6834 0008519 107.8997 252.3175 15.34024686147591
SITRO-AIS 11 (SHEFFER)  
1 57208U 23091AU  26056.27849228  .00019964  00000+0  60111-3 0  9998
2 57208  97.5222 124.8429 0008376 107.7060 252.5098 15.34353244147609
SITRO-AIS 25            
1 59066U 24039R   26056.25033387  .00003044  00000+0  24294-3 0  9998
2 59066  95.3938 158.2084 0147051   0.0417   0.0794 14.92509146108025
SITRO-AIS 26            
1 59067U 24039S   26056.30423311  .00003780  00000+0  30223-3 0  9991
2 59067  95.3943 158.1648 0147335   0.3443 359.7857 14.92326085108027
SITRO-AIS 27            
1 59068U 24039T   26056.23781403  .00003590  00000+0  28489-3 0  9993
2 59068  95.3942 158.3410 0146411 359.4373   0.6664 14.92717765108038
SITRO-AIS 28            
1 59071U 24039U   26056.28487134  .00004017  00000+0  31831-3 0  9996
2 59071  95.3942 158.4145 0146258 359.0950   0.9987 14.92751425108047
GRBBETA                 
1 60237U 24128C   26056.02290507  .00004466  00000+0  31340-3 0  9992
2 60237  61.9889 249.5161 0052748 111.7530 248.9188 15.05608305 89373
OOV-CUBE (TUBSAT-30)    
1 60240U 24128F   26056.04880602  .00002643  00000+0  20942-3 0  9990
2 60240  61.9935 256.4266 0055559 109.8592 250.8498 15.02137755 89268
ROBUSTA-3A (MEDITERRAN*)
1 60243U 24128J   26056.21439098  .00007311  00000+0  44893-3 0  9999
2 60243  61.9855 243.6830 0053221 106.0345 254.6620 15.09776594 89509
LASARSAT                
1 62391U 24247Q   26056.29351382  .00029916  00000+0  75750-3 0  9995
2 62391  44.9755 167.7114 0003391 309.7181  50.3407 15.39263065 66033
CROCUBE                 
1 62394U 24247T   26055.61875939  .00031438  00000+0  76947-3 0  9993
2 62394  44.9727 170.2058 0003505 294.7523  65.2999 15.40273670 65946
